{"type": "FeatureCollection", "features": [ {"type": "Feature", "properties": {"norad_id": 34376, "name": "IRIDIUM 33 DEB", "group": "iridium-33-debris", "lat": -0.583876640408027, "lon": -179.5632154266257, "alt_km": 676.8413391707027, "timestamp": "2025-12-26T09:30:54.024309+00:00", "meta": {"OBJECT_NAME": "IRIDIUM 33 DEB", "OBJECT_ID": "1997-051FU", "EPOCH": "2025-12-26T00:29:09.701088", "MEAN_MOTION": 14.62749123, "ECCENTRICITY": 0.0028587, "INCLINATION": 86.2985, "RA_OF_ASC_NODE": 0.5681, "ARG_OF_PERICENTER": 123.3286, "MEAN_ANOMALY": 237.0669, "EPHEMERIS_TYPE": 0, "CLASSIFICATION_TYPE": "U", "NORAD_CAT_ID": 34376, "ELEMENT_SET_NO": 999, "REV_AT_EPOCH": 88201, "BSTAR": 0.0014873, "MEAN_MOTION_DOT": 7.648e-05, "MEAN_MOTION_DDOT": 0}, "tle": {"line1": "1 34376U 97051FU  25360.02025117  .00007648  00000+0  14873-2 0  9998", "line2": "2 34376  86.2985   0.5681 0028587 123.3286 237.0669 14.62749123882019"}}, "geometry": {"type": "Point", "coordinates": [-179.5632154266257, -0.583876640408027]}}, {"type": "Feature", "properties": {"norad_id": 34486, "name": "IRIDIUM 33 DEB", "group": "iridium-33-debris", "lat": -58.21111041405329, "lon": -168.4415954897762, "alt_km": 594.5514672292957, "timestamp": "2025-12-26T09:30:54.024319+00:00", "meta": {"OBJECT_NAME": "IRIDIUM 33 DEB", "OBJECT_ID": "1997-051GB", "EPOCH": "2025-12-26T00:39:56.499264", "MEAN_MOTION": 14.96400313, "ECCENTRICITY": 0.0013918, "INCLINATION": 86.3935, "RA_OF_ASC_NODE": 5.8877, "ARG_OF_PERICENTER": 74.4824, "MEAN_ANOMALY": 338.8012, "EPHEMERIS_TYPE": 0, "CLASSIFICATION_TYPE": "U", "NORAD_CAT_ID": 34486, "ELEMENT_SET_NO": 999, "REV_AT_EPOCH": 89185, "BSTAR": 0.0021413, "MEAN_MOTION_DOT": 0.00024383, "MEAN_MOTION_DDOT": 0}, "tle": {"line1": "1 34486U 97051GB  25360.02773726  .00024383  00000+0  21413-2 0  9999", "line2": "2 34486  86.3935   5.8877 0013918  74.4824 338.8012 14.96400313891854"}}, "geometry": {"type": "Point", "coordinates": [-168.4415954897762, -58.21111041405329]}}, {"type": "Feature", "properties": {"norad_id": 34487, "name": "IRIDIUM 33 DEB", "group": "iridium-33-debris", "lat": 1.4358655497512478, "lon": -173.59504253833447, "alt_km": 751.6876425676155, "timestamp": "2025-12-26T09:30:54.024330+00:00", "meta": {"OBJECT_NAME": "IRIDIUM 33 DEB", "OBJECT_ID": "1997-051GC", "EPOCH": "2025-12-26T00:37:21.163296", "MEAN_MOTION": 14.43232747, "ECCENTRICITY": 0.0033262, "INCLINATION": 86.3429, "RA_OF_ASC_NODE": 6.6563, "ARG_OF_PERICENTER": 87.1121, "MEAN_ANOMALY": 327.0907, "EPHEMERIS_TYPE": 0, "CLASSIFICATION_TYPE": "U", "NORAD_CAT_ID": 34487, "ELEMENT_SET_NO": 999, "REV_AT_EPOCH": 88440, "BSTAR": 0.0001856, "MEAN_MOTION_DOT": 6.49e-06, "MEAN_MOTION_DDOT": 0}, "tle": {"line1": "1 34487U 97051GC  25360.02593939  .00000649  00000+0  18560-3 0  9995", "line2": "2 34487  86.3429   6.6563 0033262  87.1121 327.0907 14.43232747884401"}}, "geometry": {"type": "Point", "coordinates": [-173.59504253833447, 1.4358655497512478]}}, {"type": "Feature", "properties": {"norad_id": 34488, "name": "IRIDIUM 33 DEB", "group": "iridium-33-debris", "lat": 39.44605735954783, "lon": 116.00134663087879, "alt_km": 466.2797126961086, "timestamp": "2025-12-26T09:30:54.024340+00:00", "meta": {"OBJECT_NAME": "IRIDIUM 33 DEB", "OBJECT_ID": "1997-051GD", "EPOCH": "2025-12-25T20:22:16.973184", "MEAN_MOTION": 15.32823177, "ECCENTRICITY": 0.00085439, "INCLINATION": 86.325, "RA_OF_ASC_NODE": 299.3053, "ARG_OF_PERICENTER": 30.257, "MEAN_ANOMALY": 329.9171, "EPHEMERIS_TYPE": 0, "CLASSIFICATION_TYPE": "U", "NORAD_CAT_ID": 34488, "ELEMENT_SET_NO": 999, "REV_AT_EPOCH": 89440, "BSTAR": 0.0046585997, "MEAN_MOTION_DOT": 0.00150449, "MEAN_MOTION_DDOT": 0}, "tle": {"line1": "1 34488U 97051GD  25359.84880756  .00150449  00000+0  46586-2 0  9992", "line2": "2 34488  86.3250 299.3053 0008543  30.2570 329.9171 15.32823177894407"}}, "geometry": {"type": "Point", "coordinates": [116.00134663087879, 39.44605735954783]}}, {"type": "Feature", "properties": {"norad_id": 34492, "name": "IRIDIUM 33 DEB", "group": "iridium-33-debris", "lat": 46.94601915466583, "lon": 145.3228137744599, "alt_km": 733.4598940482228, "timestamp": "2025-12-26T09:30:54.024351+00:00", "meta": {"OBJECT_NAME": "IRIDIUM 33 DEB", "OBJECT_ID": "1997-051GH", "EPOCH": "2025-12-24T21:39:21.521088", "MEAN_MOTION": 14.25932668, "ECCENTRICITY": 0.0188786, "INCLINATION": 86.473, "RA_OF_ASC_NODE": 329.7114, "ARG_OF_PERICENTER": 198.6425, "MEAN_ANOMALY": 190.963, "EPHEMERIS_TYPE": 0, "CLASSIFICATION_TYPE": "U", "NORAD_CAT_ID": 34492, "ELEMENT_SET_NO": 999, "REV_AT_EPOCH": 85232, "BSTAR": 0.0029502, "MEAN_MOTION_DOT": 8.501e-05, "MEAN_MOTION_DDOT": 0}, "tle": {"line1": "1 34492U 97051GH  25358.90233242  .00008501  00000+0  29502-2 0  9995", "line2": "2 34492  86.4730 329.7114 0188786 198.6425 190.9630 14.25932668852326"}}, "geometry": {"type": "Point", "coordinates": [145.3228137744599, 46.94601915466583]}}, {"type": "Feature", "properties": {"norad_id": 34497, "name": "IRIDIUM 33 DEB", "group": "iridium-33-debris", "lat": 85.03619383725498, "lon": 178.0021383498986, "alt_km": 844.6646326136142, "timestamp": "2025-12-26T09:30:54.024361+00:00", "meta": {"OBJECT_NAME": "IRIDIUM 33 DEB", "OBJECT_ID": "1997-051GN", "EPOCH": "2025-12-22T21:33:03.136608", "MEAN_MOTION": 14.27482363, "ECCENTRICITY": 0.00780484, "INCLINATION": 86.2769, "RA_OF_ASC_NODE": 48.0617, "ARG_OF_PERICENTER": 306.2683, "MEAN_ANOMALY": 179.2919, "EPHEMERIS_TYPE": 0, "CLASSIFICATION_TYPE": "U", "NORAD_CAT_ID": 34497, "ELEMENT_SET_NO": 999, "REV_AT_EPOCH": 87028, "BSTAR": 0.00056228088, "MEAN_MOTION_DOT": 1.443e-05, "MEAN_MOTION_DDOT": 0}, "tle": {"line1": "1 34497U 97051GN  25356.89795297  .00001443  00000+0  56228-3 0  9993", "line2": "2 34497  86.2769  48.0617 0078048 306.2683 179.2919 14.27482363870281"}}, "geometry": {"type": "Point", "coordinates": [178.0021383498986, 85.03619383725498]}}, {"type": "Feature", "properties": {"norad_id": 34508, "name": "IRIDIUM 33 DEB", "group": "iridium-33-debris", "lat": 70.18480183812463, "lon": 107.00041160357044, "alt_km": 731.622934382146, "timestamp": "2025-12-26T09:30:54.024371+00:00", "meta": {"OBJECT_NAME": "IRIDIUM 33 DEB", "OBJECT_ID": "1997-051GZ", "EPOCH": "2025-12-25T16:29:37.440096", "MEAN_MOTION": 14.38522285, "ECCENTRICITY": 0.00666774, "INCLINATION": 86.3701, "RA_OF_ASC_NODE": 97.1541, "ARG_OF_PERICENTER": 131.4809, "MEAN_ANOMALY": 229.2141, "EPHEMERIS_TYPE": 0, "CLASSIFICATION_TYPE": "U", "NORAD_CAT_ID": 34508, "ELEMENT_SET_NO": 999, "REV_AT_EPOCH": 87495, "BSTAR": 0.0012253995, "MEAN_MOTION_DOT": 3.862e-05, "MEAN_MOTION_DDOT": 0}, "tle": {"line1": "1 34508U 97051GZ  25359.68723889  .00003862  00000+0  12254-2 0  9991", "line2": "2 34508  86.3701  97.1541 0066677 131.4809 229.2141 14.38522285874956"}}, "geometry": {"type": "Point", "coordinates": [107.00041160357044, 70.18480183812463]}}, {"type": "Feature", "properties": {"norad_id": 34521, "name": "IRIDIUM 33 DEB", "group": "iridium-33-debris", "lat": 33.283372436189055, "lon": 26.916545171498548, "alt_km": 681.4845921636561, "timestamp": "2025-12-26T09:30:54.024382+00:00", "meta": {"OBJECT_NAME": "IRIDIUM 33 DEB", "OBJECT_ID": "1997-051HN", "EPOCH": "2025-12-26T02:47:56.394816", "MEAN_MOTION": 14.63475701, "ECCENTRICITY": 0.0003278, "INCLINATION": 86.3789, "RA_OF_ASC_NODE": 24.6572, "ARG_OF_PERICENTER": 163.8384, "MEAN_ANOMALY": 196.2933, "EPHEMERIS_TYPE": 0, "CLASSIFICATION_TYPE": "U", "NORAD_CAT_ID": 34521, "ELEMENT_SET_NO": 999, "REV_AT_EPOCH": 88668, "BSTAR": 0.00084543, "MEAN_MOTION_DOT": 4.399e-05, "MEAN_MOTION_DDOT": 0}, "tle": {"line1": "1 34521U 97051HN  25360.11662494  .00004399  00000+0  84543-3 0  9997", "line2": "2 34521  86.3789  24.6572 0003278 163.8384 196.2933 14.63475701886684"}}, "geometry": {"type": "Point", "coordinates": [26.916545171498548, 33.283372436189055]}}, {"type": "Feature", "properties": {"norad_id": 34525, "name": "IRIDIUM 33 DEB", "group": "iridium-33-debris", "lat": -73.5588559447372, "lon": 28.596772797792347, "alt_km": 759.4427553336018, "timestamp": "2025-12-26T09:30:54.024392+00:00", "meta": {"OBJECT_NAME": "IRIDIUM 33 DEB", "OBJECT_ID": "1997-051HS", "EPOCH": "2025-12-26T03:27:06.511104", "MEAN_MOTION": 14.42936205, "ECCENTRICITY": 0.0006176, "INCLINATION": 86.3716, "RA_OF_ASC_NODE": 41.1217, "ARG_OF_PERICENTER": 64.0766, "MEAN_ANOMALY": 350.5685, "EPHEMERIS_TYPE": 0, "CLASSIFICATION_TYPE": "U", "NORAD_CAT_ID": 34525, "ELEMENT_SET_NO": 999, "REV_AT_EPOCH": 88281, "BSTAR": 0.00033086, "MEAN_MOTION_DOT": 1.126e-05, "MEAN_MOTION_DDOT": 0}, "tle": {"line1": "1 34525U 97051HS  25360.14382536  .00001126  00000+0  33086-3 0  9991", "line2": "2 34525  86.3716  41.1217 0006176  64.0766 350.5685 14.42936205882812"}}, "geometry": {"type": "Point", "coordinates": [28.596772797792347, -73.5588559447372]}}, {"type": "Feature", "properties": {"norad_id": 34529, "name": "IRIDIUM 33 DEB", "group": "iridium-33-debris", "lat": 67.61408203266451, "lon": 38.47294388524148, "alt_km": 748.4235845223029, "timestamp": "2025-12-26T09:30:54.024402+00:00", "meta": {"OBJECT_NAME": "IRIDIUM 33 DEB", "OBJECT_ID": "1997-051HW", "EPOCH": "2025-12-25T13:11:48.680736", "MEAN_MOTION": 14.40626161, "ECCENTRICITY": 0.0006214, "INCLINATION": 86.3628, "RA_OF_ASC_NODE": 29.95, "ARG_OF_PERICENTER": 140.827, "MEAN_ANOMALY": 219.338, "EPHEMERIS_TYPE": 0, "CLASSIFICATION_TYPE": "U", "NORAD_CAT_ID": 34529, "ELEMENT_SET_NO": 999, "REV_AT_EPOCH": 88326, "BSTAR": 0.00012953, "MEAN_MOTION_DOT": 4.33e-06, "MEAN_MOTION_DDOT": 0}, "tle": {"line1": "1 34529U 97051HW  25359.54986899  .00000433  00000+0  12953-3 0  9999", "line2": "2 34529  86.3628  29.9500 0006214 140.8270 219.3380 14.40626161883262"}}, "geometry": {"type": "Point", "coordinates": [38.47294388524148, 67.61408203266451]}}]}